#aV2010  9  3  0  0   .00000000      96 DD+AD WGS84 FIT  NGA
## 1599 432000.00000000   900.00000000 55442  .0000000000000
+   32     1  2  3  4  5  6  7  8  9 10 11 12 13 14 15 16 17
+         18 19 20 21 22 23 24 25 26 27 28 29 30 31 32  0  0
+          0  0  0  0  0  0  0  0  0  0  0  0  0  0  0  0  0
+          0  0  0  0  0  0  0  0  0  0  0  0  0  0  0  0  0
+          0  0  0  0  0  0  0  0  0  0  0  0  0  0  0  0  0
++         0  0  0  0  0  0  0  0  0  0  0  0  0  0  0  0  0
++         0  0  0  0  0  0  0  0  0  0  0  0  0  0  0  0  0
++         0  0  0  0  0  0  0  0  0  0  0  0  0  0  0  0  0
++         0  0  0  0  0  0  0  0  0  0  0  0  0  0  0  0  0
++         0  0  0  0  0  0  0  0  0  0  0  0  0  0  0  0  0
%c cc cc ccc ccc cccc cccc cccc cccc ccccc ccccc ccccc ccccc
%c cc cc ccc ccc cccc cccc cccc cccc ccccc ccccc ccccc ccccc
%f  0.0000000  0.000000000  0.00000000000  0.000000000000000
%f  0.0000000  0.000000000  0.00000000000  0.000000000000000
%i    0    0    0    0      0      0      0      0         0
%i    0    0    0    0      0      0      0      0         0
/*      NGA, ST. LOUIS,MO.                                  
/*   EPHEMERIS COMPUTED FROM  3 DAYS OF DATA                
/* CCCCCCCCCCCCCCCCCCCCCCCCCCCCCCCCCCCCCCCCCCCCCCCCCCCCCCCCC
/* CCCCCCCCCCCCCCCCCCCCCCCCCCCCCCCCCCCCCCCCCCCCCCCCCCCCCCCCC
*  2010  9  3 20 30   .00000000                                                 
P  1  11507.806557  10583.277861 -21603.812461   -158.784882                    
V  1 -23215.434111  14025.210944  -5402.694555      -.039118                    
P  2 -13441.204567 -14398.956749 -18027.397924    285.805921                    
V  2   1217.222637 -22810.485272  16850.938651       .028779                    
P  3  24969.678008   9420.105014   1361.907412    603.683044                    
V  3    616.704340   4133.777036 -30730.416485       .051637                    
P  4  -7148.677144 -23527.785442  -9743.860978    161.405736                    
V  4   3362.939780 -12276.567118  28043.139294       .088030                    
P  5 -21077.953499   -918.872203 -16201.641843    -31.944481                    
V  5  16766.342169 -11993.456915 -21056.642083      -.048429                    
P  6  22897.375365  13439.988911  -2172.112697    508.024291                    
V  6  -4207.631680   1755.433277 -30906.854780      -.149989                    
P  7   6411.934582 -23924.712972  -9329.021518     -1.915779                    
V  7   2336.265556  11883.635356 -29081.956862       .000466                    
P  8    127.553578 -26119.516613   2700.212009      6.586329                    
V  8   2450.796879  -3310.391119 -32600.057652       .000144                    
P  9 -13784.482544   7368.433128  20926.818054     28.262397                    
V  9  -1454.674133 -27769.371008   8616.331038       .022737                    
P 10 -10575.386760 -11722.506066 -21574.726217    -51.349647                    
V 10  23500.543180 -13208.042376  -4031.735506      -.010309                    
P 11  12861.769607 -12671.819456  19105.642297    -87.041097                    
V 11   8023.870316  24055.452240  10769.900142      -.025696                    
P 12 -23726.039023  11506.910263   2414.750465    -76.543288                    
V 12   1368.817061  -3745.732884  31901.053519       .037827                    
P 13   8097.750043 -12127.678382 -22334.206561    298.282395                    
V 13  23167.745738  15616.604806   -127.092355      -.008653                    
P 14  11924.411475  19040.096252  14429.421538     85.087771                    
V 14 -15864.828165  -8535.339705  24492.114291       .037944                    
P 15 -23301.696685  -2625.605609  12613.834343   -214.270758                    
V 15 -12809.245837  -9813.118087 -25616.240129       .054509                    
P 16  17213.786435   5746.096152 -19459.179756   -105.248251                    
V 16 -21199.845867  12617.822991 -14733.865515      -.034564                    
P 17  -8983.439242 -18969.401471  16509.562697    169.337254                    
V 17  18542.740245   9307.526091  20707.294488       .015711                    
P 18 -12363.489347  18753.662568  14163.562787     90.930523                    
V 18 -16904.526406   6037.651226 -23609.265929       .022686                    
P 19  22719.720944   4157.635014  13415.401024    -62.946871                    
V 19  12765.339892  11244.122531 -24814.098001      -.031025                    
P 20  23047.131734 -13028.702657   1587.642589     51.495652                    
V 20     87.936887   4256.823916  31136.158263      -.003639                    
P 21  -4671.456211  25024.191873  -5974.707391    -85.643180                    
V 21  -4075.387140  -8248.080108 -30231.597004      -.026584                    
P 22   -185.000255  17259.879736  20337.205417    163.849422                    
V 22 -23005.017851  11219.084197  -9911.264076      -.006845                    
P 23  17429.745650  -5313.834600 -19452.221065    355.511872                    
V 23  20648.485755  13313.450124  14544.231057      -.017801                    
P 24  13000.295586  13436.858088  19048.864028    318.532485                    
V 24  -2553.832528  23866.854526 -14901.218158       .033192                    
P 25 -18609.366871  17381.041488  -7603.698138    -40.675679                    
V 25  -9607.762529   2690.577575  29738.192589      -.005880                    
P 26 -23337.923879 -12186.279700   4364.449366     -4.340421                    
V 26  -4256.457533  -4746.577504 -31486.134631      -.068199                    
P 27 -15080.926707   1158.602850  22509.660048    185.687433                    
V 27  -1550.273456 -26853.593301    549.953318       .035629                    
P 28   3475.939465 -17434.001520  20125.161228     -4.916753                    
V 28  22192.530204 -10577.970256 -13598.959017       .014026                    
P 29  -9179.393698  12129.004429 -21688.000317    146.755480                    
V 29 -23488.259703 -14758.066596   1722.075739       .028615                    
P 30 -17060.944420  18433.935853  -8985.309684    275.207252                    
V 30 -10560.148365   3644.820199  28883.886683       .033842                    
P 31   7981.347468  22147.971397 -11917.704920    -12.137553                    
V 31  -2133.443943  15486.851470  27060.262874       .029982                    
P 32  24729.246578  -5940.537022   7308.470960    -76.822053                    
V 32  -6818.625626   6505.068621  30060.791271      -.089342                    
EOF
